DTUSAT                  
1 27842U 03031C   09102.62243855  .00000042  00000-0  39782-4 0  5318
2 27842  98.7078 113.6945 0009055 318.3425  41.7069 14.20974510300034
CUTE-1 (CO-55)          
1 27844U 03031E   09103.26637653  .00000053  00000-0  44749-4 0  5551
2 27844  98.7144 113.3465 0009704 336.6635  23.4109 14.20631532300048
QUAKESAT                
1 27845U 03031F   09103.05825088  .00000065  00000-0  50940-4 0  5306
2 27845  98.7202 112.5409 0009132 355.3913   4.7177 14.20260971299921
AAU CUBESAT             
1 27846U 03031G   09102.55164328  .00000039  00000-0  38249-4 0  4661
2 27846  98.7075 113.6203 0008834 317.6074  42.4427 14.20974471300029
CANX-1                  
1 27847U 03031H   09103.54521991  .00000026  00000-0  32251-4 0  4815
2 27847  98.7077 114.5912 0009122 315.9085  44.1358 14.20957597300115
CUBESAT XI-IV (CO-57)   
1 27848U 03031J   09103.51664155  .00000026  00000-0  32616-4 0  5011
2 27848  98.7171 112.6562 0009586 339.4311  20.6474 14.20434381300049
UWE-1                   
1 28892U 05043C   09102.91725867  .00000138  00000-0  38433-4 0  3102
2 28892  98.0641 354.8371 0016980 188.6863 171.4048 14.59723257184322
CUBESAT XI-V (CO-58)    
1 28895U 05043F   09101.36975667 -.00000040  00000-0  11429-5 0  2769
2 28895  98.0696 353.8301 0017611 193.5404 166.5320 14.59756030183989
NCUBE-2                 
1 28897U 05043H   09104.17733673  .00000089  00000-0  28107-4 0  8221
2 28897  98.0649 356.4727 0016872 186.0018 174.0983 14.59934441176688
CUTE-1.7+APD (CO-56)    
1 28941U 06005C   09103.97668116  .00051667  34351-5  21801-3 0  9892
2 28941  98.1361 266.7456 0101360  14.1475 346.2513 15.77981695177101
GENESAT-1               
1 29655U 06058C   09102.77666865  .00014587  00000-0  15163-3 0  6822
2 29655  40.0216 232.7559 0002200 314.0735  45.9899 15.64176532132226
CSTB1                   
1 31122U 07012F   09104.12875427  .00000554  00000-0  13192-3 0  6090
2 31122  97.9999 163.9133 0086939 112.9114 248.1263 14.55230433105847
MAST                    
1 31126U 07012K   09103.18702341 -.00000141  00000-0 -21396-4 0  5698
2 31126  97.9949 160.9493 0095650 121.2339 239.8240 14.53488134105599
LIBERTAD-1              
1 31128U 07012M   09104.20361598 -.00000046  00000-0  00000+0 0  6046
2 31128  97.9927 160.2313 0103594 123.2499 237.8703 14.52032732105610
POLYSAT CP3             
1 31129U 07012N   09104.15956073  .00000121  00000-0  38330-4 0  8541
2 31129  97.9947 160.2820 0103345 123.1510 237.9647 14.52122049105599
CAPE1                   
1 31130U 07012P   09103.64389161  .00000028  00000-0  16953-4 0  5757
2 31130  97.9969 159.7136 0104166 125.0831 236.0163 14.52048642105327
POLYSAT CP4             
1 31132U 07012Q   09103.16852396  .00000249  00000-0  64782-4 0  5816
2 31132  98.0006 162.9250 0086877 115.6980 245.3219 14.55197738105570
NTS (CANX-6)            
1 32784U 08021B   09104.19702709  .00000083  00000-0  17642-4 0  3409
2 32784  97.9524 168.5143 0014961 231.8701 128.1162 14.81032168 51958
CUTE-1.7+APD II         
1 32785U 08021C   09104.23101889  .00000287  00000-0  43446-4 0  3392
2 32785  97.9519 168.7108 0013806 238.4579 121.5281 14.81468830 51979
COMPASS-1               
1 32787U 08021E   09104.21288100  .00000524  00000-0  73473-4 0  3313
2 32787  97.9480 168.5623 0014850 237.7307 122.2467 14.81578766 51973
AAUSAT-II               
1 32788U 08021F   09103.44319498  .00000245  00000-0  37868-4 0  3300
2 32788  97.9487 167.8475 0013969 242.2652 117.7151 14.81698720 51862
DELFI-C3                
1 32789U 08021G   09104.20664592  .00000508  00000-0  71228-4 0  3405
2 32789  97.9519 168.7284 0014660 237.9563 122.0222 14.81663589 51973
CANX-2                  
1 32790U 08021H   09103.82777229  .00000073  00000-0  16190-4 0  3253
2 32790  97.9520 168.2869 0014384 237.6278 122.3527 14.81454475 51898
SEEDS II                
1 32791U 08021J   09104.18092247  .00000164  00000-0  27770-4 0  3228
2 32791  97.9472 168.5611 0014990 238.6551 121.3195 14.81412933 51939
PSLV DEB                
1 32797U 08021L   09102.15582155  .00002199  00000-0  27758-3 0  1538
2 32797  97.9759 167.5172 0015224 252.4668 107.4282 14.82873744 50379
